ONEWEB-0597             
1 54663U 22166X   26162.61043456 -.00000073  00000+0 -20942-3 0  9998
2 54663  87.9253 245.0970 0002040  95.7454 264.3912 13.21826153170802
ONEWEB-0600             
1 54664U 22166Y   26162.51621350  .00000033  00000+0  48757-4 0  9992
2 54664  87.9255 245.1071 0001858  95.6013 264.5333 13.21824067170760
ONEWEB-0601             
1 54665U 22166Z   26162.50781417  .00000062  00000+0  11890-3 0  9992
2 54665  87.9254 245.1249 0002159  92.8811 267.2571 13.21825292170953
ONEWEB-0602             
1 54666U 22166AA  26162.47333298  .00000062  00000+0  11782-3 0  9999
2 54666  87.9254 245.1379 0001808  93.8352 266.2988 13.21825929170799
ONEWEB-0603             
1 54667U 22166AB  26162.47923009  .00000066  00000+0  12945-3 0  9991
2 54667  87.9262 245.0930 0002005  96.1102 264.0260 13.21826545170727
ONEWEB-0604             
1 54668U 22166AC  26162.61883814 -.00000057  00000+0 -17045-3 0  9995
2 54668  87.9264 245.0808 0002003 101.5164 258.6195 13.21827051170708
ONEWEB-0605             
1 54669U 22166AD  26162.61212148 -.00000067  00000+0 -19430-3 0  9993
2 54669  87.9256 245.0961 0002596  92.8183 267.3248 13.21826234170775
ONEWEB-0606             
1 54670U 22166AE  26162.48259296  .00000040  00000+0  65841-4 0  9992
2 54670  87.9255 245.1344 0001987 104.4211 255.7143 13.21826264170810
ONEWEB-0607             
1 54671U 22166AF  26162.60032130  .00000017  00000+0  91261-5 0  9993
2 54671  87.9263 245.0815 0001969  94.3329 265.8030 13.21824323170809
ONEWEB-0608             
1 54672U 22166AG  26162.60706012 -.00000039  00000+0 -12564-3 0  9994
2 54672  87.9265 245.0767 0002373  88.6607 271.4798 13.21827445170816
ONEWEB-0610             
1 54673U 22166AH  26162.58686490 -.00000031  00000+0 -10751-3 0  9997
2 54673  87.9254 245.0955 0002196  82.6894 277.4489 13.21823746170711
ONEWEB-0611             
1 54674U 22166AJ  26162.50443886  .00000046  00000+0  80222-4 0  9995
2 54674  87.9254 245.1079 0002015 102.7882 257.3477 13.21827754170695
ONEWEB-0612             
1 54675U 22166AK  26162.59360532 -.00000059  00000+0 -17519-3 0  9995
2 54675  87.9265 245.0850 0002089  95.0293 265.1080 13.21824921170695
ONEWEB-0615             
1 54676U 22166AL  26162.27064355  .00000024  00000+0  27261-4 0  9991
2 54676  87.9257 245.1645 0001818 104.6090 255.5245 13.21826263170665
ONEWEB-0655             
1 54677U 22166AM  26162.47418165  .00000053  00000+0  96806-4 0  9999
2 54677  87.9254 245.1252 0001856  93.3687 266.7660 13.21826541170681
ONEWEB-0659             
1 54678U 22166AN  26162.49100303  .00000091  00000+0  18858-3 0  9996
2 54678  87.9254 245.1219 0002076 101.6906 258.4461 13.21827838170774
ONEWEB-0685             
1 54679U 22166AP  26162.49117719  .00000040  00000+0  65163-4 0  9992
2 54679  87.9252 245.1142 0002085  89.1804 270.9568 13.21847428170667
ONEWEB-0712             
1 54680U 22166AQ  26162.58823861 -.00000103  00000+0 -30205-3 0  9996
2 54680  87.9103 229.8860 0001644  89.4526 270.6794 13.16594209171326
ONEWEB-0714             
1 54681U 22166AR  26162.49602600  .00000059  00000+0  11190-3 0  9993
2 54681  87.9253 245.1105 0001727  96.8809 263.2521 13.21824439170786
ONEWEB-0532             
1 55140U 23004A   26162.56593928  .00000067  00000+0  13871-3 0  9993
2 55140  87.9137   6.9832 0002201  89.7153 270.4231 13.17648739166841
ONEWEB-0533             
1 55141U 23004B   26162.51091524  .00000458  00000+0  12376-2 0  9996
2 55141  87.8945 351.7997 0001869  83.1683 276.9658 13.12443802167312
ONEWEB-0541             
1 55142U 23004C   26162.61263737  .00000278  00000+0  74934-3 0  9994
2 55142  87.8898  22.1672 0001837  90.1678 269.9661 13.11416601165215
ONEWEB-0543             
1 55143U 23004D   26162.54900670  .00000053  00000+0  10157-3 0  9999
2 55143  87.9158 336.5920 0001623  88.9592 271.1726 13.18685816168951
ONEWEB-0544             
1 55144U 23004E   26162.54226586  .00000033  00000+0  51593-4 0  9995
2 55144  87.9156 336.5931 0001676  96.3407 263.7916 13.18685573168956
ONEWEB-0560             
1 55145U 23004F   26162.53552423  .00000054  00000+0  10525-3 0  9999
2 55145  87.9158 336.5837 0001586  96.4007 263.7306 13.18686888168965
ONEWEB-0565             
1 55146U 23004G   26162.52877732  .00000034  00000+0  54279-4 0  9995
2 55146  87.9148 336.6136 0001949 104.3658 255.7691 13.18684834168958
ONEWEB-0567             
1 55147U 23004H   26162.52203727  .00000045  00000+0  82082-4 0  9998
2 55147  87.9158 336.5986 0001797 103.4722 256.6611 13.18685541168953
ONEWEB-0569             
1 55148U 23004J   26162.44715794  .00000096  00000+0  22809-3 0  9998
2 55148  87.8957 321.3623 0001347 124.4187 235.7069 13.13469224169420
ONEWEB-0570             
1 55149U 23004K   26162.51359371  .00000069  00000+0  14322-3 0  9993
2 55149  87.9156 336.5980 0002233  96.0536 264.0850 13.18685076168943
ONEWEB-0571             
1 55150U 23004L   26162.50686351  .00000097  00000+0  21202-3 0  9991
2 55150  87.9156 336.5987 0001979 130.2816 229.8490 13.18688205168957
