OBJECT_NAME,OBJECT_ID,EPOCH,MEAN_MOTION,ECCENTRICITY,INCLINATION,RA_OF_ASC_NODE,ARG_OF_PERICENTER,MEAN_ANOMALY,EPHEMERIS_TYPE,CLASSIFICATION_TYPE,NORAD_CAT_ID,ELEMENT_SET_NO,REV_AT_EPOCH,BSTAR,MEAN_MOTION_DOT,MEAN_MOTION_DDOT
ONEWEB-0597,2022-166X,2026-06-11T14:39:01.545984,13.21826153,.00020406,87.9253,245.0970,95.7454,264.3912,0,U,54663,999,17080,-.20941837E-3,-.73E-6,0
ONEWEB-0600,2022-166Y,2026-06-11T12:23:20.846400,13.21824067,.00018583,87.9255,245.1071,95.6013,264.5333,0,U,54664,999,17076,.48757199E-4,.33E-6,0
ONEWEB-0601,2022-166Z,2026-06-11T12:11:15.144288,13.21825292,.00021591,87.9254,245.1249,92.8811,267.2571,0,U,54665,999,17095,.11889958E-3,.62E-6,0
ONEWEB-0602,2022-166AA,2026-06-11T11:21:35.969472,13.21825929,.00018088,87.9254,245.1379,93.8352,266.2988,0,U,54666,999,17079,.11782203E-3,.62E-6,0
ONEWEB-0603,2022-166AB,2026-06-11T11:30:05.479776,13.21826545,.00020054,87.9262,245.0930,96.1102,264.0260,0,U,54667,999,17072,.12944584E-3,.66E-6,0
ONEWEB-0604,2022-166AC,2026-06-11T14:51:07.615296,13.21827051,.00020033,87.9264,245.0808,101.5164,258.6195,0,U,54668,999,17070,-.17044714E-3,-.57E-6,0
ONEWEB-0605,2022-166AD,2026-06-11T14:41:27.295872,13.21826234,.00025966,87.9256,245.0961,92.8183,267.3248,0,U,54669,999,17077,-.19430127E-3,-.67E-6,0
ONEWEB-0606,2022-166AE,2026-06-11T11:34:56.031744,13.21826264,.00019879,87.9255,245.1344,104.4211,255.7143,0,U,54670,999,17081,.6584094E-4,.4E-6,0
ONEWEB-0607,2022-166AF,2026-06-11T14:24:27.760320,13.21824323,.00019697,87.9263,245.0815,94.3329,265.8030,0,U,54671,999,17080,.912608E-5,.17E-6,0
ONEWEB-0608,2022-166AG,2026-06-11T14:34:09.994368,13.21827445,.00023733,87.9265,245.0767,88.6607,271.4798,0,U,54672,999,17081,-.12563794E-3,-.39E-6,0
ONEWEB-0610,2022-166AH,2026-06-11T14:05:05.127360,13.21823746,.00021968,87.9254,245.0955,82.6894,277.4489,0,U,54673,999,17071,-.10750969E-3,-.31E-6,0
ONEWEB-0611,2022-166AJ,2026-06-11T12:06:23.517504,13.21827754,.0002015,87.9254,245.1079,102.7882,257.3477,0,U,54674,999,17069,.80221501E-4,.46E-6,0
ONEWEB-0612,2022-166AK,2026-06-11T14:14:47.499648,13.21824921,.00020895,87.9265,245.0850,95.0293,265.1080,0,U,54675,999,17069,-.17519306E-3,-.59E-6,0
ONEWEB-0615,2022-166AL,2026-06-11T06:29:43.602720,13.21826263,.00018181,87.9257,245.1645,104.6090,255.5245,0,U,54676,999,17066,.27261451E-4,.24E-6,0
ONEWEB-0655,2022-166AM,2026-06-11T11:22:49.294560,13.21826541,.00018566,87.9254,245.1252,93.3687,266.7660,0,U,54677,999,17068,.96805751E-4,.53E-6,0
ONEWEB-0659,2022-166AN,2026-06-11T11:47:02.661792,13.21827838,.0002076,87.9254,245.1219,101.6906,258.4461,0,U,54678,999,17077,.18857609E-3,.91E-6,0
ONEWEB-0685,2022-166AP,2026-06-11T11:47:17.709216,13.21847428,.00020858,87.9252,245.1142,89.1804,270.9568,0,U,54679,999,17066,.65163486E-4,.4E-6,0
ONEWEB-0712,2022-166AQ,2026-06-11T14:07:03.815904,13.16594209,.00016442,87.9103,229.8860,89.4526,270.6794,0,U,54680,999,17132,-.30205288E-3,-.103E-5,0
ONEWEB-0714,2022-166AR,2026-06-11T11:54:16.646400,13.21824439,.00017275,87.9253,245.1105,96.8809,263.2521,0,U,54681,999,17078,.11189543E-3,.59E-6,0
ONEWEB-0532,2023-004A,2026-06-11T13:34:57.153792,13.17648739,.00022017,87.9137,6.9832,89.7153,270.4231,0,U,55140,999,16684,.1387089E-3,.67E-6,0
ONEWEB-0533,2023-004B,2026-06-11T12:15:43.076736,13.12443802,.00018695,87.8945,351.7997,83.1683,276.9658,0,U,55141,999,16731,.12375787E-2,.458E-5,0
ONEWEB-0541,2023-004C,2026-06-11T14:42:11.868768,13.11416601,.00018377,87.8898,22.1672,90.1678,269.9661,0,U,55142,999,16521,.74934469E-3,.278E-5,0
ONEWEB-0543,2023-004D,2026-06-11T13:10:34.178880,13.18685816,.00016232,87.9158,336.5920,88.9592,271.1726,0,U,55143,999,16895,.10157066E-3,.53E-6,0
ONEWEB-0544,2023-004E,2026-06-11T13:00:51.770304,13.18685573,.0001676,87.9156,336.5931,96.3407,263.7916,0,U,55144,999,16895,.51592599E-4,.33E-6,0
ONEWEB-0560,2023-004F,2026-06-11T12:51:09.293472,13.18686888,.00015862,87.9158,336.5837,96.4007,263.7306,0,U,55145,999,16896,.10524963E-3,.54E-6,0
ONEWEB-0565,2023-004G,2026-06-11T12:41:26.360448,13.18684834,.00019497,87.9148,336.6136,104.3658,255.7691,0,U,55146,999,16895,.54278959E-4,.34E-6,0
ONEWEB-0567,2023-004H,2026-06-11T12:31:44.020128,13.18685541,.00017973,87.9158,336.5986,103.4722,256.6611,0,U,55147,999,16895,.82081565E-4,.45E-6,0
ONEWEB-0569,2023-004J,2026-06-11T10:43:54.446016,13.13469224,.00013476,87.8957,321.3623,124.4187,235.7069,0,U,55148,999,16942,.22809113E-3,.96E-6,0
ONEWEB-0570,2023-004K,2026-06-11T12:19:34.496544,13.18685076,.00022337,87.9156,336.5980,96.0536,264.0850,0,U,55149,999,16894,.14322498E-3,.69E-6,0
ONEWEB-0571,2023-004L,2026-06-11T12:09:53.007264,13.18688205,.00019798,87.9156,336.5987,130.2816,229.8490,0,U,55150,999,16895,.21201703E-3,.97E-6,0
